NORAD_CAT_ID,OBJECT_NAME,OBJECT_TYPE,EPOCH,MEAN_MOTION,ECCENTRICITY,INCLINATION,RA_OF_ASC_NODE,ARG_OF_PERICENTER,MEAN_ANOMALY,BSTAR,MEAN_MOTION_DOT,MEAN_MOTION_DDOT,TLE_LINE0,TLE_LINE1,TLE_LINE2,SEMIMAJOR_AXIS,PERIOD,APOGEE,PERIGEE,DECAYED
50188.0,STARLINK-3275,PAYLOAD,2022-02-11 12:11:14,15.7325814,0.0002989,53.2159,93.4746,17.5192,342.593,0.00015598,0.00021382,0.0,0 STARLINK-3275,1 50188U 21125AJ  22042.50780994  .00021382  00000-0  15598-3 0  9992,2 50188  53.2159  93.4746 0002989  17.5192 342.5930 15.73258140  8870,6727.729,91.53,351.605,347.584,0.0
50188.0,STARLINK-3275,PAYLOAD,2022-02-11 22:00:01,15.73204395,0.0003077,53.2174,91.4306,17.3074,139.5645,3.7343e-06,-9.9e-07,0.0,0 STARLINK-3275,1 50188U 21125AJ  22042.91668981 -.00000099  00000-0  37343-5 0  9995,2 50188  53.2174  91.4306 0003077  17.3074 139.5645 15.73204395  8941,6727.8830000000025,91.533,351.8180000000001,347.677,0.0
50188.0,STARLINK-3275,PAYLOAD,2022-02-12 06:00:00,15.7324261,0.0002905,53.2161,89.8034,8.5802,237.4158,-0.00052689,-0.00074073,0.0,0 STARLINK-3275,1 50188U 21125AJ  22043.25001157 -.00074073  00000-0 -52689-3 0  9991,2 50188  53.2161  89.8034 0002905   8.5802 237.4158 15.73242610  8990,6727.774,91.531,351.593,347.684,0.0
50188.0,STARLINK-3275,PAYLOAD,2022-02-12 12:34:55,15.73228965,0.0003071,53.2162,88.4459,11.6106,348.4984,0.00023881,0.00033073,0.0,0 STARLINK-3275,1 50188U 21125AJ  22043.52425421  .00033073  00000-0  23881-3 0  9990,2 50188  53.2162  88.4459 0003071  11.6106 348.4984 15.73228965 12176,6727.813,91.531,351.744,347.611,0.0
50188.0,STARLINK-3275,PAYLOAD,2022-02-12 22:00:00,15.7315385,0.0003021,53.216,86.50399999999998,9.8757,54.0294,0.00037099,0.00051671,0.0,0 STARLINK-3275,1 50188U 21125AJ  22043.91667824  .00051671  00000-0  37099-3 0  9998,2 50188  53.2160  86.5040 0003021   9.8757  54.0294 15.73153850  9096,6728.026999999999,91.536,351.9240000000001,347.8590000000001,0.0
50188.0,STARLINK-3275,PAYLOAD,2022-02-13 06:00:00,15.72902058,0.0003199,53.217,84.8394,7.9877,144.8547,0.0016674,0.00237098,0.0,0 STARLINK-3275,1 50188U 21125AJ  22044.25001157  .00237098  00000-0  16674-2 0  9991,2 50188  53.2170  84.8394 0003199   7.9877 144.8547 15.72902058  9155,6728.745,91.551,352.76199999999994,348.457,0.0
50188.0,STARLINK-3275,PAYLOAD,2022-02-13 14:00:01,15.73178238,0.0003469,53.2152,83.2072,13.9381,227.7373,0.00066146,0.0009318,0.0,0 STARLINK-3275,1 50188U 21125AJ  22044.58334491  .00093180  00000-0  66146-3 0  9999,2 50188  53.2152  83.2072 0003469  13.9381 227.7373 15.73178238  9208,6727.956999999999,91.534,352.156,347.48800000000006,0.0
50188.0,STARLINK-3275,PAYLOAD,2022-02-13 22:00:00,15.73235908,0.000316,53.2152,81.5556,13.8378,316.7821,-0.00026719,-0.00038021,0.0,0 STARLINK-3275,1 50188U 21125AJ  22044.91667824 -.00038021  00000-0 -26719-3 0  9992,2 50188  53.2152  81.5556 0003160  13.8378 316.7821 15.73235908  9259,6727.793000000002,91.531,351.784,347.532,0.0
50188.0,STARLINK-3275,PAYLOAD,2022-02-14 14:00:01,15.73172611,0.0003429,53.2153,78.2584,6.9496,141.5778,-0.00028366,-0.0004021,0.0,0 STARLINK-3275,1 50188U 21125AJ  22045.58334491 -.00040210  00000-0 -28366-3 0  9990,2 50188  53.2153  78.2584 0003429   6.9496 141.5778 15.73172611  3694,6727.973000000001,91.535,352.145,347.531,0.0
50188.0,STARLINK-3275,PAYLOAD,2022-02-14 20:00:01,15.73122963,0.0003256,53.2155,77.0196,5.1745,120.0206,0.00026842,0.000371,0.0,0 STARLINK-3275,1 50188U 21125AJ  22045.83334491  .00037100  00000-0  26842-3 0  9997,2 50188  53.2155  77.0196 0003256   5.1745 120.0206 15.73122963  3680,6728.115,91.538,352.17,347.789,0.0
50188.0,STARLINK-3275,PAYLOAD,2022-02-15 06:00:00,15.73186469,0.0003345,53.2151,74.9585,8.1066,318.1642,6.0856e-05,7.923e-05,0.0,0 STARLINK-3275,1 50188U 21125AJ  22046.25001157  .00007923  00000-0  60856-4 0  9998,2 50188  53.2151  74.9585 0003345   8.1066 318.1642 15.73186469  9469,6727.934,91.534,352.0490000000001,347.548,0.0
50188.0,STARLINK-3275,PAYLOAD,2022-02-15 14:00:01,15.73178896,0.0003553,53.2143,73.3098,8.4648,46.7048,0.00040548,0.00056633,0.0,0 STARLINK-3275,1 50188U 21125AJ  22046.58334491  .00056633  00000-0  40548-3 0  9991,2 50188  53.2143  73.3098 0003553   8.4648  46.7048 15.73178896  3667,6727.955,91.534,352.211,347.43,0.0
50188.0,STARLINK-3275,PAYLOAD,2022-02-15 22:00:01,15.73195943,0.0003234,53.2144,71.6582,8.8068,135.3621,0.0004427,0.0006197,0.0,0 STARLINK-3275,1 50188U 21125AJ  22046.91668981  .00061970  00000-0  44270-3 0  9998,2 50188  53.2144  71.6582 0003234   8.8068 135.3621 15.73195943  3689,6727.906999999997,91.533,351.9480000000001,347.596,0.0
50188.0,STARLINK-3275,PAYLOAD,2022-02-16 14:00:01,15.73206495,0.0003574,53.2147,68.3608,6.558,315.4559,0.00038854,0.0005428999999999,0.0,0 STARLINK-3275,1 50188U 21125AJ  22047.58334491  .00054290  00000-0  38854-3 0  9996,2 50188  53.2147  68.3608 0003574   6.5580 315.4559 15.73206495  9676,6727.877,91.533,352.146,347.337,0.0
50188.0,STARLINK-3275,PAYLOAD,2022-02-16 22:00:00,15.73242534,0.0003317,53.2147,66.7088,6.6670000000000025,44.3198,-0.00013567,-0.0001966,0.0,0 STARLINK-3275,1 50188U 21125AJ  22047.91667824 -.00019660  00000-0 -13567-3 0  9990,2 50188  53.2147  66.7088 0003317   6.6670  44.3198 15.73242534  3660,6727.774,91.531,351.871,347.407,0.0
50188.0,STARLINK-3275,PAYLOAD,2022-02-17 06:00:00,15.73238196,0.0003477,53.2145,65.0606,6.4374,133.519,7.751699999999999e-06,4.66e-06,0.0,0 STARLINK-3275,1 50188U 21125AJ  22048.25001157  .00000466  00000-0  77517-5 0  9998,2 50188  53.2145  65.0606 0003477   6.4374 133.5190 15.73238196  9772,6727.786,91.531,351.991,347.31199999999984,0.0
50188.0,STARLINK-3275,PAYLOAD,2022-02-17 14:00:01,15.72723583,0.0003697,53.216,63.394,5.2258,223.7377,0.0049904,0.00750568,0.0,0 STARLINK-3275,1 50188U 21125AJ  22048.58334491  .00750568  00000-0  49904-2 0  9995,2 50188  53.2160  63.3940 0003697   5.2258 223.7377 15.72723583  9837,6729.254,91.561,353.607,348.631,0.0
50188.0,STARLINK-3275,PAYLOAD,2022-02-17 22:00:00,15.73204075,0.0003351,53.2172,61.7377,8.5097,309.1142,1.3588e-06,-4.33e-06,0.0,0 STARLINK-3275,1 50188U 21125AJ  22048.91667824 -.00000433  00000-0  13588-5 0  9993,2 50188  53.2172  61.7377 0003351   8.5097 309.1142 15.73204075  9885,6727.884,91.533,352.00300000000016,347.494,0.0
50188.0,STARLINK-3275,PAYLOAD,2022-02-18 06:00:00,15.73192023,0.0003532,53.2145,60.1117,11.1677,35.6211,3.5245e-05,4.325e-05,0.0,0 STARLINK-3275,1 50188U 21125AJ  22049.25001157  .00004325  00000-0  35245-4 0  9998,2 50188  53.2145  60.1117 0003532  11.1677  35.6211 15.73192023  9938,6727.918000000002,91.534,352.159,347.407,0.0
50188.0,STARLINK-3275,PAYLOAD,2022-02-18 14:00:01,15.73237893,0.0003643,53.2145,58.4624,9.5951,126.1059,-0.00056785,-0.0007973,0.0,0 STARLINK-3275,1 50188U 21125AJ  22049.58334491 -.00079730  00000-0 -56785-3 0  9999,2 50188  53.2145  58.4624 0003643   9.5951 126.1059 15.73237893  3700,6727.7869999999975,91.531,352.103,347.201,0.0
50188.0,STARLINK-3275,PAYLOAD,2022-02-18 20:00:01,15.73151757,0.0003417,53.2147,57.2236,8.4178,104.0087,0.00037501,0.0005224,0.0,0 STARLINK-3275,1 50188U 21125AJ  22049.83334491  .00052240  00000-0  37501-3 0  9997,2 50188  53.2147  57.2236 0003417   8.4178 104.0087 15.73151757  3672,6728.033,91.536,352.19699999999995,347.599,0.0
50188.0,STARLINK-3275,PAYLOAD,2022-02-19 12:00:02,15.73231354,0.0003677,53.2142,53.9263,8.6372,281.6961,-0.00018698,-0.00026828,0.0,0 STARLINK-3275,1 50188U 21125AJ  22050.50002315 -.00026828  00000-0 -18698-3 0  9991,2 50188  53.2142  53.9263 0003677   8.6372 281.6961 15.73231354 10130,6727.806,91.531,352.145,347.19699999999995,0.0
50188.0,STARLINK-3275,PAYLOAD,2022-02-19 14:00:01,15.73239289,0.000364,53.214,53.5133,8.6709,33.8346,-0.00039194,-0.00055384,0.0,0 STARLINK-3275,1 50188U 21125AJ  22050.58334491 -.00055384  00000-0 -39194-3 0  9995,2 50188  53.2140  53.5133 0003640   8.6709  33.8346 15.73239289  3663,6727.783,91.531,352.097,347.199,0.0
50188.0,STARLINK-3275,PAYLOAD,2022-02-19 22:00:00,15.73189144,0.0003328,53.2144,51.8619,8.7612,122.6987,0.00045619,0.00063874,0.0,0 STARLINK-3275,1 50188U 21125AJ  22050.91667824  .00063874  00000-0  45619-3 0  9991,2 50188  53.2144  51.8619 0003328   8.7612 122.6987 15.73189144  3666,6727.926,91.534,352.03,347.552,0.0
50188.0,STARLINK-3275,PAYLOAD,2022-02-20 06:00:00,15.73236504,0.0003521,53.2147,50.2142,7.1496,213.2643,-0.00041834,-0.00059038,0.0,0 STARLINK-3275,1 50188U 21125AJ  22051.25001157 -.00059038  00000-0 -41834-3 0  9994,2 50188  53.2147  50.2142 0003521   7.1496 213.2643 15.73236504 10253,6727.791,91.531,352.025,347.287,0.0
50188.0,STARLINK-3275,PAYLOAD,2022-02-20 14:00:01,15.73205919,0.0003565,53.2148,48.5643,3.5723,305.7870000000001,-0.0002722,-0.00038674,0.0,0 STARLINK-3275,1 50188U 21125AJ  22051.58334491 -.00038674  00000-0 -27220-3 0  9996,2 50188  53.2148  48.5643 0003565   3.5723 305.7870 15.73205919  3674,6727.878000000002,91.533,352.142,347.345,0.0
50188.0,STARLINK-3275,PAYLOAD,2022-02-20 22:00:00,15.73173294,0.0003374,53.215,46.9131,4.2526,34.0274,0.00053978,0.00075749,0.0,0 STARLINK-3275,1 50188U 21125AJ  22051.91667824  .00075749  00000-0  53978-3 0  9993,2 50188  53.2150  46.9131 0003374   4.2526  34.0274 15.73173294 10351,6727.971,91.535,352.106,347.566,0.0
50188.0,STARLINK-3275,PAYLOAD,2022-02-21 06:00:00,15.73206226,0.000362,53.2148,45.2656,4.05,123.1441,-0.00039214,-0.00055334,0.0,0 STARLINK-3275,1 50188U 21125AJ  22052.25001157 -.00055334  00000-0 -39214-3 0  9999,2 50188  53.2148  45.2656 0003620   4.0500 123.1441 15.73206226 10400,6727.877,91.533,352.17800000000005,347.307,0.0
50188.0,STARLINK-3275,PAYLOAD,2022-02-21 22:00:00,15.73119013,0.0003376,53.2148,41.9647,9.6031,295.3922,0.00056328,0.00078919,0.0,0 STARLINK-3275,1 50188U 21125AJ  22052.91667824  .00078919  00000-0  56328-3 0  9998,2 50188  53.2148  41.9647 0003376   9.6031 295.3922 15.73119013 10516,6728.126,91.538,352.26199999999994,347.72,0.0
